
 1 90004U SGP4-VAL 93051.03935584 +.00001327  00000 0  00000 0 0 0882                                                                                                                                                                                                                                                                                                                                                                                                                                                           
 2 90004  64.7716 195.4037 6033327 269.3020  18.6110  2.0061535803847                                                                                                                                                                                                                                                                                                                                                                                                                                                           

         0.0000000        2.0062379        0.6033327       64.7716000      195.4037000      269.3020000       18.6110000
      2700.0000000        2.0062703        0.6032966       64.7715319      195.2686449      269.2746719      292.8026131
      5400.0000000        2.0063027        0.6032604       64.7714639      195.1335898      269.2473438      207.0161183
      8100.0000000        2.0063351        0.6032243       64.7713958      194.9985347      269.2200157      121.2514838
     10800.0000000        2.0063674        0.6031882       64.7713278      194.8634796      269.1926877       35.5086745
     13500.0000000        2.0063997        0.6031521       64.7712597      194.7284246      269.1653596      309.7876518
     16200.0000000        2.0064318        0.6031159       64.7711917      194.5933695      269.1380315      224.0883736
     18900.0000000        2.0064639        0.6030798       64.7711236      194.4583144      269.1107034      138.4107943
     21600.0000000        2.0064960        0.6030437       64.7710556      194.3232593      269.0833753       52.7548640
     24300.0000000        2.0065279        0.6030076       64.7709875      194.1882042      269.0560472      327.1205290
     27000.0000000        2.0065598        0.6029714       64.7709194      194.0531491      269.0287192      241.5077315
     29700.0000000        2.0065916        0.6029353       64.7708514      193.9180940      269.0013911      155.9164094
     32400.0000000        2.0066232        0.6028992       64.7707833      193.7830389      268.9740630       70.3464960
     35100.0000000        2.0066548        0.6028630       64.7707153      193.6479839      268.9467349      344.7979198
     37800.0000000        2.0066862        0.6028269       64.7706472      193.5129288      268.9194068      259.2706049
     40500.0000000        2.0067175        0.6027908       64.7705792      193.3778737      268.8920787      173.7644700
     43200.0000000        2.0067487        0.6027547       64.7705111      193.2428186      268.8647507       88.2794288


 1 90005U SGP4-VAL 93051.03935584 +.00001327  00000 0  00000 0 0 0882                                                                                                                                                                                                                                                                                                                                                                                                                                                           
 2 90005  64.7716 195.4037 6833327 269.3020  18.6110  2.0061535803847                                                                                                                                                                                                                                                                                                                                                                                                                                                           

         0.0000000        2.0062634        0.6833327       64.7716000      195.4037000      269.3020000       18.6110000
      2700.0000000        2.0063079        0.6832952       64.7715321      195.2116733      269.2698478      292.8084154
      5400.0000000        2.0063524        0.6832578       64.7714643      195.0196466      269.2376957      207.0358469
      8100.0000000        2.0063968        0.6832203       64.7713964      194.8276200      269.2055435      121.2932717
     10800.0000000        2.0064412        0.6831829       64.7713285      194.6355933      269.1733914       35.5806613
     13500.0000000        2.0064855        0.6831454       64.7712606      194.4435666      269.1412392      309.8979819
     16200.0000000        2.0065297        0.6831079       64.7711928      194.2515399      269.1090871      224.2451943
     18900.0000000        2.0065739        0.6830705       64.7711249      194.0595133      269.0769349      138.6222532
     21600.0000000        2.0066180        0.6830330       64.7710570      193.8674866      269.0447828       53.0291073
     24300.0000000        2.0066620        0.6829956       64.7709891      193.6754599      269.0126306      327.4656991
     27000.0000000        2.0067059        0.6829581       64.7709213      193.4834332      268.9804785      241.9319645
     29700.0000000        2.0067497        0.6829206       64.7708534      193.2914066      268.9483263      156.4278327
     32400.0000000        2.0067934        0.6828832       64.7707855      193.0993799      268.9161742       70.9532257
     35100.0000000        2.0068369        0.6828457       64.7707177      192.9073532      268.8840220      345.5080577
     37800.0000000        2.0068803        0.6828083       64.7706498      192.7153265      268.8518699      260.0922357
     40500.0000000        2.0069236        0.6827708       64.7705819      192.5232999      268.8197177      174.7056580
     43200.0000000        2.0069667        0.6827333       64.7705140      192.3312732      268.7875656       89.3482147


 1 90006U SGP4-VAL 93051.03935584 +.00001327  00000 0  00000 0 0 0882                                                                                                                                                                                                                                                                                                                                                                                                                                                           
 2 90006  64.7716 195.4037 7233327 269.3020  18.6110  2.0061535803847                                                                                                                                                                                                                                                                                                                                                                                                                                                           

         0.0000000        2.0062834        0.7233327       64.7716000      195.4037000      269.3020000       18.6110000
      2700.0000000        2.0063373        0.7232952       64.7715320      195.1638886      269.2654634      292.8125184
      5400.0000000        2.0063911        0.7232577       64.7714639      194.9240773      269.2289269      207.0503625
      8100.0000000        2.0064449        0.7232202       64.7713959      194.6842659      269.1923903      121.3245230
     10800.0000000        2.0064986        0.7231827       64.7713279      194.4444546      269.1558537       35.6349833
     13500.0000000        2.0065523        0.7231452       64.7712598      194.2046432      269.1193171      309.9817198
     16200.0000000        2.0066060        0.7231077       64.7711918      193.9648318      269.0827806      224.3647016
     18900.0000000        2.0066596        0.7230702       64.7711238      193.7250205      269.0462440      138.7838903
     21600.0000000        2.0067132        0.7230327       64.7710558      193.4852091      269.0097074       53.2392395
     24300.0000000        2.0067666        0.7229952       64.7709877      193.2453978      268.9731709      327.7306948
     27000.0000000        2.0068200        0.7229577       64.7709197      193.0055864      268.9366343      242.2581936
     29700.0000000        2.0068732        0.7229202       64.7708517      192.7657750      268.9000977      156.8216644
     32400.0000000        2.0069263        0.7228827       64.7707836      192.5259637      268.8635611       71.4210262
     35100.0000000        2.0069793        0.7228452       64.7707156      192.2861523      268.8270246      346.0561885
     37800.0000000        2.0070321        0.7228077       64.7706476      192.0463410      268.7904880      260.7270507
     40500.0000000        2.0070847        0.7227702       64.7705795      191.8065296      268.7539514      175.4335014
     43200.0000000        2.0071371        0.7227327       64.7705115      191.5667182      268.7174149       90.1754175

